start=new Date('2022-03-05T00:00:00.000Z').valueOf();
sats=[{"ARG_OF_PERICENTER":"44.5608","COUNTRY_CODE":"US","INCLINATION":"53.0527","MEAN_MOTION_DDOT":"0.0000000000000","SEMIMAJOR_AXIS":"6925.330","REV_AT_EPOCH":"5981","FILE":"3344357","BSTAR":"0.00029659000000","MEAN_ELEMENT_THEORY":"SGP4","APOAPSIS":"548.498","REF_FRAME":"TEME","OBJECT_TYPE":"PAYLOAD","MEAN_MOTION":"15.06406152","TIME_SYSTEM":"UTC","TLE_LINE1":"1 47562U 21009Q   22063.54011074  .00004140  00000-0  29659-3 0  9994","RCS_SIZE":"LARGE","MEAN_MOTION_DOT":"0.00004140","ELEMENT_SET_NO":"999","GP_ID":"197842533","SITE":"AFETR","CLASSIFICATION_TYPE":"U","PERIAPSIS":"545.891","EPOCH":"2022-03-04T12:57:45.567936","LAUNCH_DATE":"2021-02-04","MEAN_ANOMALY":"315.5532","OBJECT_NAME":"STARLINK-1961","OBJECT_ID":"2021-009Q","CENTER_NAME":"EARTH","ECCENTRICITY":"0.00018820","PERIOD":"95.592","EPHEMERIS_TYPE":"0","DECAY_DATE":null,"NORAD_CAT_ID":"47562","TLE_LINE2":"2 47562  53.0527 123.4250 0001882  44.5608 315.5532 15.06406152 59818","RA_OF_ASC_NODE":"123.4250"},{"INCLINATION":"53.0541","COUNTRY_CODE":"US","MEAN_MOTION_DDOT":"0.0000000000000","SEMIMAJOR_AXIS":"6925.372","ARG_OF_PERICENTER":"50.8693","FILE":"3344357","BSTAR":"0.00007245100000","APOAPSIS":"548.414","MEAN_ELEMENT_THEORY":"SGP4","REF_FRAME":"TEME","REV_AT_EPOCH":"5981","RCS_SIZE":"LARGE","MEAN_MOTION":"15.06392303","OBJECT_TYPE":"PAYLOAD","TIME_SYSTEM":"UTC","TLE_LINE1":"1 47563U 21009R   22063.56223286  .00000798  00000-0  72451-4 0  9991","GP_ID":"197842783","MEAN_MOTION_DOT":"0.00000798","ELEMENT_SET_NO":"999","EPOCH":"2022-03-04T13:29:36.919104","LAUNCH_DATE":"2021-02-04","SITE":"AFETR","CLASSIFICATION_TYPE":"U","PERIAPSIS":"546.060","PERIOD":"95.593","MEAN_ANOMALY":"309.2446","CENTER_NAME":"EARTH","OBJECT_ID":"2021-009R","OBJECT_NAME":"STARLINK-1962","ECCENTRICITY":"0.00017000","DECAY_DATE":null,"EPHEMERIS_TYPE":"0","TLE_LINE2":"2 47563  53.0541 123.3275 0001700  50.8693 309.2446 15.06392303 59810","RA_OF_ASC_NODE":"123.3275","NORAD_CAT_ID":"47563"},{"BSTAR":"-0.00005485500000","REF_FRAME":"TEME","APOAPSIS":"548.443","MEAN_ELEMENT_THEORY":"SGP4","FILE":"3344357","REV_AT_EPOCH":"5995","SEMIMAJOR_AXIS":"6925.366","INCLINATION":"53.0556","COUNTRY_CODE":"US","MEAN_MOTION_DDOT":"0.0000000000000","ARG_OF_PERICENTER":"53.6175","GP_ID":"197844034","ELEMENT_SET_NO":"999","MEAN_MOTION_DOT":"-0.00001098","RCS_SIZE":"LARGE","TLE_LINE1":"1 47564U 21009S   22063.56315665 -.00001098  00000-0 -54855-4 0  9999","TIME_SYSTEM":"UTC","MEAN_MOTION":"15.06394358","OBJECT_TYPE":"PAYLOAD","PERIOD":"95.592","MEAN_ANOMALY":"306.4975","OBJECT_NAME":"STARLINK-1963","OBJECT_ID":"2021-009S","CENTER_NAME":"EARTH","ECCENTRICITY":"0.00017500","LAUNCH_DATE":"2021-02-04","EPOCH":"2022-03-04T13:30:56.734560","PERIAPSIS":"546.019","SITE":"AFETR","CLASSIFICATION_TYPE":"U","RA_OF_ASC_NODE":"113.3284","TLE_LINE2":"2 47564  53.0556 113.3284 0001750  53.6175 306.4975 15.06394358 59950","NORAD_CAT_ID":"47564","DECAY_DATE":null,"EPHEMERIS_TYPE":"0"},{"SEMIMAJOR_AXIS":"6925.381","MEAN_MOTION_DDOT":"0.0000000000000","INCLINATION":"53.0556","COUNTRY_CODE":"US","ARG_OF_PERICENTER":"53.3266","REF_FRAME":"TEME","APOAPSIS":"548.471","MEAN_ELEMENT_THEORY":"SGP4","BSTAR":"-0.00005457100000","FILE":"3344357","REV_AT_EPOCH":"5995","RCS_SIZE":"LARGE","TLE_LINE1":"1 47565U 21009T   22063.55947491 -.00001094  00000-0 -54571-4 0  9998","TIME_SYSTEM":"UTC","OBJECT_TYPE":"PAYLOAD","MEAN_MOTION":"15.06389521","GP_ID":"197843771","ELEMENT_SET_NO":"999","MEAN_MOTION_DOT":"-0.00001094","LAUNCH_DATE":"2021-02-04","EPOCH":"2022-03-04T13:25:38.632224","PERIAPSIS":"546.020","CLASSIFICATION_TYPE":"U","SITE":"AFETR","PERIOD":"95.593","ECCENTRICITY":"0.00017700","MEAN_ANOMALY":"306.7885","CENTER_NAME":"EARTH","OBJECT_NAME":"STARLINK-1964","OBJECT_ID":"2021-009T","DECAY_DATE":null,"EPHEMERIS_TYPE":"0","RA_OF_ASC_NODE":"113.3414","TLE_LINE2":"2 47565  53.0556 113.3414 0001770  53.3266 306.7885 15.06389521 59955","NORAD_CAT_ID":"47565"},{"EPHEMERIS_TYPE":"0","DECAY_DATE":null,"NORAD_CAT_ID":"47566","TLE_LINE2":"2 47566  53.0551 103.0650 0001740  56.7309 303.3846 15.06402594 60106","RA_OF_ASC_NODE":"103.0650","SITE":"AFETR","CLASSIFICATION_TYPE":"U","PERIAPSIS":"546.001","EPOCH":"2022-03-04T14:51:52.834464","LAUNCH_DATE":"2021-02-04","OBJECT_NAME":"STARLINK-1965","MEAN_ANOMALY":"303.3846","OBJECT_ID":"2021-009U","CENTER_NAME":"EARTH","ECCENTRICITY":"0.00017400","PERIOD":"95.592","OBJECT_TYPE":"PAYLOAD","MEAN_MOTION":"15.06402594","TIME_SYSTEM":"UTC","TLE_LINE1":"1 47566U 21009U   22063.61936151  .00003156  00000-0  23068-3 0  9992","RCS_SIZE":"LARGE","MEAN_MOTION_DOT":"0.00003156","ELEMENT_SET_NO":"999","GP_ID":"197905323","ARG_OF_PERICENTER":"56.7309","INCLINATION":"53.0551","COUNTRY_CODE":"US","MEAN_MOTION_DDOT":"0.0000000000000","SEMIMAJOR_AXIS":"6925.341","REV_AT_EPOCH":"6010","FILE":"3344863","BSTAR":"0.00023068000000","APOAPSIS":"548.411","MEAN_ELEMENT_THEORY":"SGP4","REF_FRAME":"TEME"},{"EPHEMERIS_TYPE":"0","DECAY_DATE":null,"NORAD_CAT_ID":"47567","TLE_LINE2":"2 47567  53.0547 143.2090 0001582  56.1662 303.9477 15.06391897 59530","RA_OF_ASC_NODE":"143.2090","CLASSIFICATION_TYPE":"U","SITE":"AFETR","PERIAPSIS":"546.143","EPOCH":"2022-03-04T14:09:25.223328","LAUNCH_DATE":"2021-02-04","ECCENTRICITY":"0.00015820","MEAN_ANOMALY":"303.9477","OBJECT_ID":"2021-009V","CENTER_NAME":"EARTH","OBJECT_NAME":"STARLINK-1966","PERIOD":"95.593","OBJECT_TYPE":"PAYLOAD","MEAN_MOTION":"15.06391897","TLE_LINE1":"1 47567U 21009V   22063.58987527 -.00000815  00000-0 -35842-4 0  9997","TIME_SYSTEM":"UTC","RCS_SIZE":"LARGE","MEAN_MOTION_DOT":"-0.00000815","ELEMENT_SET_NO":"999","GP_ID":"197843283","ARG_OF_PERICENTER":"56.1662","MEAN_MOTION_DDOT":"0.0000000000000","COUNTRY_CODE":"US","INCLINATION":"53.0547","SEMIMAJOR_AXIS":"6925.373","REV_AT_EPOCH":"5953","FILE":"3344357","REF_FRAME":"TEME","APOAPSIS":"548.334","MEAN_ELEMENT_THEORY":"SGP4","BSTAR":"-0.00003584200000"},{"RCS_SIZE":"LARGE","TIME_SYSTEM":"UTC","TLE_LINE1":"1 47568U 21009W   22063.61567192  .00004118  00000-0  29509-3 0  9994","MEAN_MOTION":"15.06412764","OBJECT_TYPE":"PAYLOAD","GP_ID":"197904322","ELEMENT_SET_NO":"999","MEAN_MOTION_DOT":"0.00004118","SEMIMAJOR_AXIS":"6925.309","INCLINATION":"53.0534","COUNTRY_CODE":"US","MEAN_MOTION_DDOT":"0.0000000000000","ARG_OF_PERICENTER":"68.7995","BSTAR":"0.00029509000000","APOAPSIS":"548.225","REF_FRAME":"TEME","MEAN_ELEMENT_THEORY":"SGP4","FILE":"3344863","REV_AT_EPOCH":"5954","DECAY_DATE":null,"EPHEMERIS_TYPE":"0","RA_OF_ASC_NODE":"143.0812","TLE_LINE2":"2 47568  53.0534 143.0812 0001517  68.7995 291.3156 15.06412764 59545","NORAD_CAT_ID":"47568","LAUNCH_DATE":"2021-02-04","EPOCH":"2022-03-04T14:46:34.053888","PERIAPSIS":"546.124","SITE":"AFETR","CLASSIFICATION_TYPE":"U","PERIOD":"95.591","OBJECT_NAME":"STARLINK-1967","MEAN_ANOMALY":"291.3156","OBJECT_ID":"2021-009W","CENTER_NAME":"EARTH","ECCENTRICITY":"0.00015170"},{"REV_AT_EPOCH":"6034","FILE":"3344863","BSTAR":"0.00090085000000","MEAN_ELEMENT_THEORY":"SGP4","APOAPSIS":"442.016","REF_FRAME":"TEME","ARG_OF_PERICENTER":"11.4578","COUNTRY_CODE":"US","INCLINATION":"53.0580","MEAN_MOTION_DDOT":"0.0000000000000","SEMIMAJOR_AXIS":"6817.425","MEAN_MOTION_DOT":"0.00039200","ELEMENT_SET_NO":"999","GP_ID":"197904572","MEAN_MOTION":"15.42311910","OBJECT_TYPE":"PAYLOAD","TIME_SYSTEM":"UTC","TLE_LINE1":"1 47569U 21009X   22063.75934961  .00039200  00000-0  90085-3 0  9999","RCS_SIZE":"LARGE","OBJECT_NAME":"STARLINK-1968","MEAN_ANOMALY":"348.6517","OBJECT_ID":"2021-009X","CENTER_NAME":"EARTH","ECCENTRICITY":"0.00039990","PERIOD":"93.366","SITE":"AFETR","CLASSIFICATION_TYPE":"U","PERIAPSIS":"436.564","EPOCH":"2022-03-04T18:13:27.806304","LAUNCH_DATE":"2021-02-04","NORAD_CAT_ID":"47569","TLE_LINE2":"2 47569  53.0580  87.6635 0003999  11.4578 348.6517 15.42311910 60349","RA_OF_ASC_NODE":"87.6635","EPHEMERIS_TYPE":"0","DECAY_DATE":null},{"REV_AT_EPOCH":"6009","FILE":"3344357","REF_FRAME":"TEME","APOAPSIS":"548.401","MEAN_ELEMENT_THEORY":"SGP4","BSTAR":"0.00004046500000","ARG_OF_PERICENTER":"60.2433","MEAN_MOTION_DDOT":"0.0000000000000","COUNTRY_CODE":"US","INCLINATION":"53.0539","SEMIMAJOR_AXIS":"6925.380","MEAN_MOTION_DOT":"0.00000321","ELEMENT_SET_NO":"999","GP_ID":"197842534","MEAN_MOTION":"15.06389854","OBJECT_TYPE":"PAYLOAD","TLE_LINE1":"1 47570U 21009Y   22063.54196632  .00000321  00000-0  40465-4 0  9993","TIME_SYSTEM":"UTC","RCS_SIZE":"LARGE","ECCENTRICITY":"0.00016690","OBJECT_ID":"2021-009Y","MEAN_ANOMALY":"299.8722","OBJECT_NAME":"STARLINK-1969","CENTER_NAME":"EARTH","PERIOD":"95.593","CLASSIFICATION_TYPE":"U","SITE":"AFETR","PERIAPSIS":"546.089","EPOCH":"2022-03-04T13:00:25.890048","LAUNCH_DATE":"2021-02-04","NORAD_CAT_ID":"47570","TLE_LINE2":"2 47570  53.0539 103.4080 0001669  60.2433 299.8722 15.06389854 60099","RA_OF_ASC_NODE":"103.4080","EPHEMERIS_TYPE":"0","DECAY_DATE":null},{"MEAN_ANOMALY":"303.4982","OBJECT_ID":"2021-009Z","CENTER_NAME":"EARTH","OBJECT_NAME":"STARLINK-1970","ECCENTRICITY":"0.00013920","PERIOD":"95.592","SITE":"AFETR","CLASSIFICATION_TYPE":"U","PERIAPSIS":"546.264","EPOCH":"2022-03-04T10:03:56.464992","LAUNCH_DATE":"2021-02-04","NORAD_CAT_ID":"47571","TLE_LINE2":"2 47571  53.0537 113.9668 0001392  56.6140 303.4982 15.06395418 59937","RA_OF_ASC_NODE":"113.9668","EPHEMERIS_TYPE":"0","DECAY_DATE":null,"REV_AT_EPOCH":"5993","FILE":"3344357","BSTAR":"0.00010363000000","APOAPSIS":"548.192","REF_FRAME":"TEME","MEAN_ELEMENT_THEORY":"SGP4","ARG_OF_PERICENTER":"56.6140","INCLINATION":"53.0537","COUNTRY_CODE":"US","MEAN_MOTION_DDOT":"0.0000000000000","SEMIMAJOR_AXIS":"6925.363","MEAN_MOTION_DOT":"0.00001262","ELEMENT_SET_NO":"999","GP_ID":"197842784","OBJECT_TYPE":"PAYLOAD","MEAN_MOTION":"15.06395418","TIME_SYSTEM":"UTC","TLE_LINE1":"1 47571U 21009Z   22063.41940353  .00001262  00000-0  10363-3 0  9995","RCS_SIZE":"LARGE"}];
